[{"OBJECT_NAME":"STARLINK-30412","OBJECT_ID":"2023-141Q","EPOCH":"2026-03-09T21:33:40.617792","MEAN_MOTION":15.30193138,"ECCENTRICITY":0.00013384,"INCLINATION":53.1605,"RA_OF_ASC_NODE":282.8927,"ARG_OF_PERICENTER":85.3647,"MEAN_ANOMALY":274.7507,"EPHEMERIS_TYPE":0,"CLASSIFICATION_TYPE":"U","NORAD_CAT_ID":57854,"ELEMENT_SET_NO":999,"REV_AT_EPOCH":14036,"BSTAR":7.7272397e-5,"MEAN_MOTION_DOT":1.93e-5,"MEAN_MOTION_DDOT":0},{"OBJECT_NAME":"PUCP-SAT 1","OBJECT_ID":"2013-066AC","EPOCH":"2026-03-09T22:02:13.763904","MEAN_MOTION":15.29426022,"ECCENTRICITY":0.00136836,"INCLINATION":97.5787,"RA_OF_ASC_NODE":61.0032,"ARG_OF_PERICENTER":300.1183,"MEAN_ANOMALY":59.87,"EPHEMERIS_TYPE":0,"CLASSIFICATION_TYPE":"U","NORAD_CAT_ID":39442,"ELEMENT_SET_NO":999,"REV_AT_EPOCH":66907,"BSTAR":0.00088755185,"MEAN_MOTION_DOT":0.00025373,"MEAN_MOTION_DDOT":0}]
